STARLINK-37987          
1 69749U 26150L   26201.10388185  .00170206  00000+0  11195-2 0  9998
2 69749  97.2839  39.7029 0001339  85.7618 274.3800 15.75188674  4095
STARLINK-38037          
1 69750U 26150M   26200.06041013  .00203229  00000+0  10371-2 0  9997
2 69750  97.2848  38.6752 0001985  76.0288 284.1201 15.80816640  3934
STARLINK-38049          
1 69751U 26150N   26201.07220469  .00169077  00000+0  86673-3 0  9995
2 69751  97.2840  39.7474 0000520  93.9650 266.1678 15.80808609  4097
STARLINK-38029          
1 69752U 26150P   26201.08729771  .00139328  00000+0  91989-3 0  9999
2 69752  97.2845  39.7268 0001839  77.4578 282.6893 15.75187814  4098
STARLINK-37965          
1 69753U 26150Q   26201.09400120  .00151978  00000+0  10017-2 0  9992
2 69753  97.2846  39.7166 0001337  83.9207 276.2211 15.75191592  4092
STARLINK-38048          
1 69754U 26150R   26201.19269120  .00174412  00000+0  89137-3 0  9995
2 69754  97.2837  39.8907 0001895  84.7652 275.3832 15.80860525  4116
STARLINK-38006          
1 69755U 26150S   26201.27540458  .00104577  00000+0  69234-3 0  9992
2 69755  97.2867  39.9305 0000014 282.3461  77.7803 15.75226895  4122
STARLINK-38036          
1 69756U 26150T   26201.07813709  .00141164  00000+0  93255-3 0  9996
2 69756  97.2844  39.7405 0001563  76.2470 283.8969 15.75169439  4096
STARLINK-38058          
1 69757U 26150U   26201.25004630 -.00174797  00000+0 -11922-2 0  9992
2 69757  97.2847  39.9472 0001535 100.0819 212.3212 15.75246791  4116
STARLINK-38066          
1 69758U 26150V   26201.25004630  .00122848  00000+0  81800-3 0  9994
2 69758  97.2844  39.9581 0001686 109.6567 226.7541 15.75039125  4112
STARLINK-38035          
1 69759U 26150W   26201.00002315  .00010052  00000+0  53164-4 0  9992
2 69759  97.2842  39.6988 0001345  90.8778 279.8278 15.80812496  4073
STARLINK-38056          
1 69760U 26150X   26200.99470901  .00293402  00000+0  14776-2 0  9997
2 69760  97.2834  39.7014 0001333  69.6797 290.4615 15.80874613  4083
STARLINK-38069          
1 69761U 26150Y   26201.25004630 -.00130544  00000+0 -88656-3 0  9998
2 69761  97.2853  39.9624 0000986  88.2560 260.1492 15.75222246  4116
STARLINK-38019          
1 69762U 26150Z   26201.27470386  .00126340  00000+0  83470-3 0  9992
2 69762  97.2845  39.9313 0000946  81.6622 278.4751 15.75210681  4126
KUIPER-00258            
1 69763U 26151A   26201.25004630  .00037131  00000+0  10916-2 0  9990
2 69763  51.8684 156.2040 0010880 186.7524   5.4954 15.34693618  3155
KUIPER-00526            
1 69764U 26151B   26201.25747467  .00007769  00000+0  21894-3 0  9995
2 69764  51.8772 155.9170 0005904 156.2830 203.8430 15.37391157  2795
KUIPER-00558            
1 69765U 26151C   26201.25004630 -.01220544  00000+0 -44174-1 0  9999
2 69765  51.8802 156.1181 0005670 166.6908  69.4046 15.30606102  3394
KUIPER-00569            
1 69766U 26151D   26200.00001157 -.00011214  00000+0 -28959-3 0  9999
2 69766  51.8800 161.9756 0005106 149.5744  96.8948 15.37536026  1697
KUIPER-00589            
1 69767U 26151E   26201.25703660 -.00371906  00000+0 -10858-1 0  9990
2 69767  51.8760 155.9140 0003195 140.5115 219.6104 15.36279970  2794
KUIPER-00598            
1 69768U 26151F   26201.25004630  .00038831  00000+0  11556-2 0  9994
2 69768  51.8648 156.2076 0008317 178.0238  10.2557 15.34310036  3330
KUIPER-00604            
1 69769U 26151G   26201.24672719  .00009215  00000+0  25018-3 0  9996
2 69769  51.8802 155.8461 0002716 120.8147 239.3108 15.38315790  2798
KUIPER-00609            
1 69770U 26151H   26201.24192385  .00008260  00000+0  22253-3 0  9991
2 69770  51.8804 155.8143 0001272  63.9706 296.1412 15.38707862  2797
KUIPER-00611            
1 69771U 26151J   26201.24424756  .00007814  00000+0  21235-3 0  9995
2 69771  51.8808 155.8257 0001603 115.2250 244.8904 15.38523167  2791
KUIPER-00612            
1 69772U 26151K   26201.25019710  .00013239  00000+0  35810-3 0  9999
2 69772  51.8793 155.8697 0003657 133.9585 226.1704 15.38023691  2790
KUIPER-00614            
1 69773U 26151L   26201.24774564  .00011574  00000+0  31241-3 0  9998
2 69773  51.8802 155.8512 0002617 136.9156 223.2037 15.38227164  2798
KUIPER-00615            
1 69774U 26151M   26201.25853265  .00008499  00000+0  23917-3 0  9999
2 69774  51.8782 155.9235 0006020 164.4270 195.6903 15.37300031  2792
KUIPER-00616            
1 69775U 26151N   26201.24569665  .00021794  00000+0  57488-3 0  9990
2 69775  51.8790 155.8412 0002693 130.5594 229.5628 15.38413204  2792
KUIPER-00617            
1 69776U 26151P   26201.25179911  .00011522  00000+0  31469-3 0  9992
2 69776  51.8803 155.8794 0003857 153.1279 206.9908 15.37864574  2794
KUIPER-00619            
1 69777U 26151Q   26201.24305739  .00013526  00000+0  35869-3 0  9995
2 69777  51.8806 155.8230 0001699  83.2699 276.8482 15.38618287  2796
KUIPER-00621            
1 69778U 26151R   26201.11571248  .00754204  00000+0  17768-1 0  9993
2 69778  51.8809 156.4708 0007088 216.8278 143.2223 15.39219047  2772
